GLOBALSTAR M069         
1 31573U 07020C   26166.54631208 -.00000049  00000+0  39968-3 0  9999
2 31573  52.0029 256.7716 0002373 144.6131 228.7040 12.23471107878608
GLOBALSTAR M072         
1 31574U 07020D   26166.56692263 -.00000107  00000+0 -32191-3 0  9997
2 31574  51.9922 104.5585 0001413 328.0768 202.4816 11.91658410874784
GLOBALSTAR M066         
1 32265U 07048C   26166.03439398 -.00000148  00000+0 -44878-3 0  9995
2 32265  51.9602  64.0921 0005456  39.3868 334.4058 12.30387808859966
GLOBALSTAR M079         
1 37188U 10054A   26166.57694462 -.00000120  00000+0 -89834-4 0  9991
2 37188  52.0033 113.5714 0000682  20.0481 151.9399 12.62266070722342
GLOBALSTAR M074         
1 37189U 10054B   26166.60301410 -.00000125  00000+0 -11669-3 0  9999
2 37189  52.0006 112.7569 0000514  49.9713 120.7592 12.62268395722952
GLOBALSTAR M076         
1 37190U 10054C   26166.11954987 -.00000112  00000+0 -45936-4 0  9991
2 37190  52.0024 114.4316 0000686  39.8014 333.0406 12.62261787722619
GLOBALSTAR M077         
1 37191U 10054D   26166.24374608 -.00000065  00000+0  23181-3 0  9995
2 37191  51.9922 184.2290 0002765 169.0850 272.1211 11.67547791720919
GLOBALSTAR M075         
1 37192U 10054E   26166.14724395 -.00000114  00000+0 -57758-4 0  9991
2 37192  51.9920 156.4037 0000114  19.8267  58.7839 12.62267401721680
GLOBALSTAR M073         
1 37193U 10054F   26166.48462517 -.00000103  00000+0  65716-5 0  9995
2 37193  52.0069  69.4749 0000896  44.5211 126.4698 12.62262146723714
GLOBALSTAR M083         
1 37739U 11033A   26166.33911138 -.00000094  00000+0  54287-4 0  9990
2 37739  51.9877  18.1493 0000914  64.3558 106.5352 12.62263036692717
GLOBALSTAR M088         
1 37740U 11033B   26166.53069949 -.00000089  00000+0  81592-4 0  9991
2 37740  52.0221 283.9914 0000732 124.3899 315.8519 12.62268684688288
GLOBALSTAR M091         
1 37741U 11033C   26166.52891726 -.00000072  00000+0  17499-3 0  9993
2 37741  51.9991 246.9646 0000344 149.1421 223.9940 12.62263902689070
GLOBALSTAR M085         
1 37742U 11033D   26166.35729664 -.00000082  00000+0  12019-3 0  9990
2 37742  52.0103 198.7769 0000107 263.3850 109.5902 12.62264127689561
GLOBALSTAR M081         
1 37743U 11033E   26166.40346226 -.00000076  00000+0  15610-3 0  9999
2 37743  51.9936 201.0749 0000130 112.9478 349.5413 12.62265042689718
GLOBALSTAR M089         
1 37744U 11033F   26166.26476292 -.00000108  00000+0 -21542-4 0  9990
2 37744  51.9905 155.6552 0000346  88.7591 284.0107 12.62267205690545
GLOBALSTAR M084         
1 38040U 11080A   26166.35315972 -.00000098  00000+0  30519-4 0  9990
2 38040  52.0026  22.8656 0001077  82.2364 272.3575 12.62267493668521
GLOBALSTAR M080         
1 38041U 11080B   26166.40626157 -.00000088  00000+0  88176-4 0  9998
2 38041  52.0079  24.4217 0000366  70.2962 295.7515 12.62269377668663
GLOBALSTAR M082         
1 38042U 11080C   26166.22041103 -.00000098  00000+0  34785-4 0  9999
2 38042  52.0101 340.4882 0000549  94.2891  76.8924 12.62263527669348
GLOBALSTAR M092         
1 38043U 11080D   26166.51113388 -.00000101  00000+0  15958-4 0  9993
2 38043  52.0094  69.9996 0000672  60.1359 111.7714 12.62266973667833
GLOBALSTAR M090         
1 38044U 11080E   26166.62247163 -.00000102  00000+0  11993-4 0  9991
2 38044  52.0142 333.2196 0000799  89.9073 348.1748 12.62269058669516
GLOBALSTAR M086         
1 38045U 11080F   26166.18951524 -.00000098  00000+0  32209-4 0  9993
2 38045  51.9915 334.4705 0001671  64.4872 106.0634 12.62286662669400
GLOBALSTAR M097         
1 39072U 13005A   26166.49999194 -.00000099  00000+0  27570-4 0  9998
2 39072  52.0047 248.4732 0000315 128.4829 231.6066 12.62247206616698
GLOBALSTAR M093         
1 39073U 13005B   26166.47323207 -.00000074  00000+0  16734-3 0  9995
2 39073  52.0099 241.9004 0000205  97.6550 262.4340 12.62265894616647
GLOBALSTAR M094         
1 39074U 13005C   26166.15639649 -.00000117  00000+0 -75117-4 0  9991
2 39074  51.9927 156.9822 0000355 356.0005   4.0858 12.62268588618214
GLOBALSTAR M096         
1 39075U 13005D   26166.40742159 -.00000078  00000+0  14496-3 0  9998
2 39075  52.0052 205.0192 0000046 228.1086 131.9776 12.62265624617167
GLOBALSTAR M078         
1 39076U 13005E   26166.53879837 -.00000181  00000+0 -43258-3 0  9991
2 39076  51.9888 288.6303 0000524 221.3756 138.7071 12.62257710615803
GLOBALSTAR M095         
1 39077U 13005F   26166.48636784 -.00000092  00000+0  67348-4 0  9995
2 39077  52.0093 286.3921 0000264 130.1618 229.9272 12.62263408615650
GLOBALSTAR M087         
1 52888U 22064A   26166.42043136 -.00000104  00000+0  10365-5 0  9994
2 52888  52.0007  67.8311 0000729  35.1094 324.9821 12.62268995190912
